0 CZ-2C DEB
1 37734U 11030E   13281.69632532  .00001704  00000-0  42379-3 0  4221
2 37734 097.9317 324.9438 0099467 202.6101 273.3612 14.50020759119437
0 CZ-2C DEB
1 37734U 11030E   13283.13517005  .00001906  00000-0  47241-3 0  4237
2 37734 097.9315 326.2990 0099541 198.1618 224.2523 14.50033326119630
0 CZ-2C DEB
1 37734U 11030E   13285.13689054  .00002192  00000-0  54165-3 0  4245
2 37734 097.9318 328.1839 0099518 191.9503 233.5076 14.50038169119922
0 CZ-2C DEB
1 37734U 11030E   13287.14007729  .00002576  00000-0  63417-3 0  4258
2 37734 097.9315 330.0711 0099647 185.8037 250.3996 14.50044898120215
0 CZ-2C DEB
1 37734U 11030E   13289.70130188  .00003175  00000-0  77871-3 0  4264
2 37734 097.9303 332.4835 0099813 177.9038 300.4667 14.50061580120593
0 CZ-2C DEB
1 37734U 11030E   13291.77014318  .00002936  00000-0  72055-3 0  4274
2 37734 097.9296 334.4318 0099932 171.5485 300.2798 14.50072565120891
0 CZ-2C DEB
1 37734U 11030E   13294.17898289  .00003349  00000-0  82013-3 0  4283
2 37734 097.9293 336.7002 0100082 164.1460 275.0644 14.50083182121238
